{
  "norad_id": 41394,
  "name": "COSMOS 2515",
  "history": [
    {
      "epoch": "2026-04-11T19:47:06.337824Z",
      "apogee_km": 559.6106277428007,
      "perigee_km": 526.5811202215828,
      "latitude_deg": 4.888063294608863e-05,
      "longitude_deg": -22.01363788192103,
      "height_km": 561.9502398311096,
      "semi_major_axis_km": 6921.232873982191,
      "eccentricity": 0.0023861,
      "inclination_deg": 97.9813,
      "raan_deg": 114.8011,
      "arg_perigee_deg": 163.175,
      "mean_anomaly_deg": 197.0274,
      "mean_motion_rev_day": 15.07743862
    },
    {
      "epoch": "2026-04-13T06:49:34.281120Z",
      "apogee_km": 559.708084800418,
      "perigee_km": 526.4625471035279,
      "latitude_deg": 1.4194183560640448e-05,
      "longitude_deg": 172.4464492884543,
      "height_km": 561.5497255812563,
      "semi_major_axis_km": 6921.222315951973,
      "eccentricity": 0.00240171,
      "inclination_deg": 97.981,
      "raan_deg": 116.3167,
      "arg_perigee_deg": 158.1001,
      "mean_anomaly_deg": 202.1258,
      "mean_motion_rev_day": 15.07747312
    },
    {
      "epoch": "2026-04-14T19:27:36.165600Z",
      "apogee_km": 559.8081014626614,
      "perigee_km": 526.3633689615681,
      "latitude_deg": -2.8118322234804385e-05,
      "longitude_deg": -16.9820942058313,
      "height_km": 561.0244818773008,
      "semi_major_axis_km": 6921.2227352121145,
      "eccentricity": 0.0024161,
      "inclination_deg": 97.9803,
      "raan_deg": 117.9005,
      "arg_perigee_deg": 153.0274,
      "mean_anomaly_deg": 207.2214,
      "mean_motion_rev_day": 15.07747175
    },
    {
      "epoch": "2026-04-15T19:21:06.022944Z",
      "apogee_km": 559.8547773580676,
      "perigee_km": 526.3172990042576,
      "latitude_deg": -1.1953787657971664e-06,
      "longitude_deg": -15.304795917127109,
      "height_km": 560.6107732062145,
      "semi_major_axis_km": 6921.223038181162,
      "eccentricity": 0.0024228,
      "inclination_deg": 97.9798,
      "raan_deg": 118.9334,
      "arg_perigee_deg": 149.8029,
      "mean_anomaly_deg": 210.46,
      "mean_motion_rev_day": 15.07747076
    },
    {
      "epoch": "2026-04-16T20:50:09.861216Z",
      "apogee_km": 559.8953695235059,
      "perigee_km": 526.278983697709,
      "latitude_deg": 3.878092773746781e-05,
      "longitude_deg": -37.51579935962344,
      "height_km": 560.1265400216894,
      "semi_major_axis_km": 6921.224176610607,
      "eccentricity": 0.0024285,
      "inclination_deg": 97.9793,
      "raan_deg": 120.035,
      "arg_perigee_deg": 146.4743,
      "mean_anomaly_deg": 213.8027,
      "mean_motion_rev_day": 15.07746704
    },
    {
      "epoch": "2026-04-17T23:54:47.600928Z",
      "apogee_km": 559.9258661178901,
      "perigee_km": 526.2438783012203,
      "latitude_deg": -9.420045974369526e-07,
      "longitude_deg": -83.61456025292637,
      "height_km": 559.5697198857882,
      "semi_major_axis_km": 6921.221872209555,
      "eccentricity": 0.00243324,
      "inclination_deg": 97.9786,
      "raan_deg": 121.2055,
      "arg_perigee_deg": 143.067,
      "mean_anomaly_deg": 217.2238,
      "mean_motion_rev_day": 15.07747457
    },
    {
      "epoch": "2026-04-18T20:37:09.309792Z",
      "apogee_km": 559.9372158113574,
      "perigee_km": 526.2198222887537,
      "latitude_deg": -6.890191508572809e-06,
      "longitude_deg": -34.160079472278525,
      "height_km": 559.0814178259908,
      "semi_major_axis_km": 6921.215519050055,
      "eccentricity": 0.0024358,
      "inclination_deg": 97.9783,
      "raan_deg": 122.1008,
      "arg_perigee_deg": 140.3639,
      "mean_anomaly_deg": 219.9374,
      "mean_motion_rev_day": 15.07749533
    }
  ]
}